XRISM                   
1 57800U 23137A   23276.82895325  .00006041  00000+0  49177-3 0  9999
2 57800  31.0031 206.6989 0010253 183.9714 176.0840 14.98078509  3947
